IRIDIUM 116             
1 43072U 17083C   24256.50739453  .00001073  00000+0  37619-3 0  9999
2 43072  86.3957 230.5488 0002292  90.5342 269.6117 14.34219640352055
IRIDIUM 130             
1 43073U 17083D   24256.40591256  .00001365  00000+0  48036-3 0  9995
2 43073  86.3961 230.8042 0002213  89.1457 270.9992 14.34224456351982
IRIDIUM 151             
1 43074U 17083E   24255.89216027  .00002031  00000+0  71803-3 0  9997
2 43074  86.3953 230.8499 0002364  84.6744 275.4721 14.34225133351934
IRIDIUM 134             
1 43075U 17083F   24256.48836781  .00000100  00000+0  28597-4 0  9997
2 43075  86.3957 230.5994 0002192  91.8064 268.3383 14.34219389351986
IRIDIUM 137             
1 43076U 17083G   24256.43128556  .00001011  00000+0  35400-3 0  9999
2 43076  86.3960 230.7029 0002735  92.4162 267.7347 14.34222608352040
IRIDIUM 141             
1 43077U 17083H   24256.49470327  .00001434  00000+0  50469-3 0  9993
2 43077  86.3956 230.5437 0002223  82.7845 277.3604 14.34227740352055
IRIDIUM 153             
1 43078U 17083J   24255.81895323  .00000225  00000+0  73220-4 0  9994
2 43078  86.4027 199.3318 0002408  69.0879 291.0574 14.34217620353063
IRIDIUM 131             
1 43079U 17083K   24256.55178648  .00001529  00000+0  53865-3 0  9991
2 43079  86.3962 230.6629 0002517  87.6097 272.5387 14.34227909351991
